STARLINK-3994           
1 52633U 22052AM  22157.58334491 -.00045853  00000+0 -32370-3 0  9998
2 52633  53.2145 327.0129 0000989  85.3699 118.4837 15.73227285  1309
STARLINK-3974           
1 52634U 22052AN  22157.83334491  .00067111  00000+0  47941-3 0  9996
2 52634  53.2147 325.7829 0001183  71.3155 106.8525 15.73169055  4008
STARLINK-3978           
1 52635U 22052AP  22157.58334491 -.00078382  00000+0 -55848-3 0  9998
2 52635  53.2146 327.0105 0000913  85.1378 119.8922 15.73234074  1309
STARLINK-3967           
1 52636U 22052AQ  22157.83334491  .00067086  00000+0  47944-3 0  9992
2 52636  53.2146 325.7807 0001086  70.2004 109.1891 15.73158746  4005
STARLINK-3961           
1 52637U 22052AR  22157.58334491 -.00090954  00000+0 -64938-3 0  9999
2 52637  53.2145 327.0088 0001101  88.1199 117.4754 15.73246130  1307
STARLINK-3941           
1 52638U 22052AS  22157.58334491 -.00045015  00000+0 -31765-3 0  9990
2 52638  53.2147 327.0146 0001288  90.1178 113.0974 15.73227860  1306
STARLINK-3968           
1 52639U 22052AT  22157.58334491  .00010727  00000+0  80802-4 0  9998
2 52639  53.2144 327.0048 0000859  87.7181 119.6887 15.73183716  1300
STARLINK-3977           
1 52640U 22052AU  22157.83334491  .00062879  00000+0  44914-3 0  9996
2 52640  53.2146 325.7766 0001062  60.2643 120.8111 15.73197360  4006
STARLINK-3991           
1 52641U 22052AV  22157.58334491 -.00041471  00000+0 -29212-3 0  9990
2 52641  53.2144 327.0033 0000903  99.1342 108.8377 15.73232717  1303
STARLINK-3971           
1 52642U 22052AW  22157.58334491 -.00004167  00000+0 -25301-4 0  9998
2 52642  53.2147 327.0079 0001202  89.4145 116.8439 15.73191667  1309
STARLINK-3963           
1 52643U 22052AX  22157.83334491  .00064643  00000+0  46199-3 0  9997
2 52643  53.2143 325.7640 0001111  73.4498 113.0364 15.73173293  4009
STARLINK-3985           
1 52644U 22052AY  22157.58334491 -.00092574  00000+0 -66080-3 0  9997
2 52644  53.2147 327.0069 0001175  70.2395 136.5154 15.73258330  1308
STARLINK-3973           
1 52645U 22052AZ  22157.58334491 -.00079779  00000+0 -56845-3 0  9998
2 52645  53.2142 326.9978 0000905  83.8153 126.5752 15.73240234  1300
STARLINK-3832           
1 52646U 22052BA  22157.58334491  .00011524  00000+0  86494-4 0  9995
2 52646  53.2146 327.0027 0001180  94.0769 114.5372 15.73178241  1308
STARLINK-3846           
1 52647U 22052BB  22157.58334491 -.00045814  00000+0 -32323-3 0  9998
2 52647  53.2143 326.9955 0000909  94.5476 116.9897 15.73240872  1300
STARLINK-3854           
1 52648U 22052BC  22157.58334491  .00010873  00000+0  81798-4 0  9995
2 52648  53.2148 327.0017 0001283  95.6853 113.5013 15.73196724  1303
STARLINK-3868           
1 52649U 22052BD  22157.58334491 -.00056779  00000+0 -40206-3 0  9991
2 52649  53.2142 326.9969 0000962  72.3545 138.5855 15.73247366  1305
STARLINK-3891           
1 52650U 22052BE  22157.58334491 -.00004691  00000+0 -29028-4 0  9999
2 52650  53.2145 326.9955 0001186  81.2020 131.0110 15.73200779  1300
FALCON 9 DEB            
1 52651U 22052BF  22157.83998799  .00225256  31308-4  51895-3 0  9991
2 52651  53.2069 323.2087 0015783 326.0213  33.9805 15.96611491  3668
FALCON 9 DEB            
1 52652U 22052BG  22157.58010371  .00213945  29579-4  46725-3 0  9990
2 52652  53.2060 324.4279 0016183 329.1164  30.8913 15.97574522  3626
FALCON 9 DEB            
1 52653U 22052BH  22157.74825896  .00249979  37139-4  48602-3 0  9998
2 52653  53.2072 323.3417 0012220 323.5529  36.4669 15.99701901  3651
FALCON 9 DEB            
1 52654U 22052BJ  22157.74060541  .00311074  52268-4  56805-3 0  9997
2 52654  53.2112 323.2975 0011986 330.1154  29.9192 16.00750783  3654
STARLINK-4004           
1 52656U 22053A   22157.91667824 -.00721005  00000+0 -65329-2 0  9999
2 52656  53.2175 201.4468 0001088 317.0398  95.5915 15.69521478  3894
STARLINK-4084           
1 52657U 22053B   22157.91667824 -.00721137  00000+0 -65375-2 0  9997
2 52657  53.2175 201.4445 0001302 308.2579 102.4682 15.69507781  4196
STARLINK-4082           
1 52658U 22053C   22157.91667824 -.00720932  00000+0 -65334-2 0  9995
2 52658  53.2175 201.4452 0001122 321.2497  90.7467 15.69516787  4016
STARLINK-3960           
1 52659U 22053D   22157.91667824 -.00720742  00000+0 -65327-2 0  9997
2 52659  53.2175 201.4453 0001165 317.0709  94.2903 15.69512155  4013
STARLINK-4081           
1 52660U 22053E   22157.91667824 -.00720643  00000+0 -65280-2 0  9997
2 52660  53.2175 201.4478 0001154 334.1146  79.1517 15.69525900  3895
STARLINK-4042           
1 52661U 22053F   22157.91667824 -.00721459  00000+0 -65344-2 0  9995
2 52661  53.2175 201.4486 0001274 312.3012 101.5998 15.69531018  3821
STARLINK-4044           
1 52662U 22053G   22157.91667824 -.00721574  00000+0 -65330-2 0  9999
2 52662  53.2175 201.4517 0001265 319.2236  95.9470 15.69540366  3828
STARLINK-4037           
1 52663U 22053H   22157.91667824 -.00722347  00000+0 -65391-2 0  9996
2 52663  53.2176 201.4526 0001325 300.5045 115.3006 15.69545468  3828
STARLINK-4070           
1 52664U 22053J   22157.91667824 -.00720859  00000+0 -65274-2 0  9993
2 52664  53.2175 201.4502 0001230 333.1249  81.4110 15.69535327  3827
STARLINK-4064           
1 52665U 22053K   22157.91667824 -.00714791  00000+0 -64604-2 0  9998
2 52665  53.2176 201.4549 0001642  29.2144  29.1312 15.69559087  3826
STARLINK-4079           
1 52666U 22053L   22157.91667824 -.00714942  00000+0 -64657-2 0  9995
2 52666  53.2175 201.4540 0001584  31.7077  24.7340 15.69545396  3825
STARLINK-4076           
1 52667U 22053M   22157.91667824 -.00722242  00000+0 -65322-2 0  9998
2 52667  53.2176 201.4561 0001124 316.7788 102.1995 15.69568481  3822
STARLINK-4067           
1 52668U 22053N   22157.91667824 -.00722278  00000+0 -65359-2 0  9998
2 52668  53.2175 201.4552 0001325 312.9024 104.1720 15.69554701  3824
STARLINK-3972           
1 52669U 22053P   22157.91667824 -.00722152  00000+0 -65275-2 0  9997
2 52669  53.2176 201.4598 0001142 325.2677  95.6138 15.69582354  3815
STARLINK-4075           
1 52670U 22053Q   22157.91667824 -.00721293  00000+0 -65255-2 0  9992
2 52670  53.2176 201.4557 0001129 334.2027  83.5066 15.69558754  3381
STARLINK-4071           
1 52671U 22053R   22157.58334491 -.00699702  00000+0 -61694-2 0  9999
2 52671  53.2175 203.1022 0004018 263.2167  73.4190 15.70083949  1300
STARLINK-4073           
1 52672U 22053S   22157.91667824 -.00721968  00000+0 -65284-2 0  9995
2 52672  53.2175 201.4576 0001065 321.6361  97.9767 15.69572960  3385
STARLINK-3976           
1 52673U 22053T   22157.91667824 -.00722449  00000+0 -65266-2 0  9991
2 52673  53.2176 201.4634 0001125 325.7545  97.0296 15.69596468  3385
STARLINK-3936           
1 52674U 22053U   22157.91667824 -.00723029  00000+0 -65369-2 0  9991
2 52674  53.2176 201.4587 0001314 306.2098 114.0371 15.69578211  3380
STARLINK-3934           
1 52675U 22053V   22157.91667824  .00053932  00000+0  38675-3 0  9990
2 52675  53.2151 201.4028 0002490  27.2450  52.3658 15.73165774  3385
STARLINK-4006           
1 52676U 22053W   22157.91667824 -.00722674  00000+0 -65301-2 0  9994
2 52676  53.2176 201.4624 0001102 323.1054  99.0445 15.69591923  3388
STARLINK-4028           
1 52677U 22053X   22157.91667824  .00055309  00000+0  39623-3 0  9996
2 52677  53.2149 201.4006 0002365  23.8068  57.0503 15.73179005  3381
STARLINK-4074           
1 52678U 22053Y   22157.58334491 -.00018643  00000+0 -12860-3 0  9997
2 52678  53.2151 203.0563 0002859  22.3294 327.7579 15.73210423  3339
STARLINK-4031           
1 52679U 22053Z   22157.58334491 -.00015118  00000+0 -10350-3 0  9994
2 52679  53.2163 203.0480 0002640  20.4314 333.2722 15.73189560  3330
STARLINK-3774           
1 52680U 22053AA  22157.91667824  .00055703  00000+0  39906-3 0  9992
2 52680  53.2147 201.4019 0002533  30.8344  49.3955 15.73175158  3389
STARLINK-4068           
1 52681U 22053AB  22157.91667824  .00056483  00000+0  40451-3 0  9996
2 52681  53.2148 201.3947 0002818  16.4768  66.7007 15.73176805  3387
STARLINK-4017           
1 52682U 22053AC  22157.58334491  .00073603  00000+0  52514-3 0  9997
2 52682  53.2150 203.0511 0002667  20.2185 332.2744 15.73158207  3335
STARLINK-4039           
1 52683U 22053AD  22157.91667824  .00035917  00000+0  25953-3 0  9997
2 52683  53.2147 201.3924 0002369  19.1597  65.2848 15.73171712  3383
STARLINK-4014           
1 52684U 22053AE  22157.58334491  .00075368  00000+0  53763-3 0  9996
2 52684  53.2148 203.0493 0002810  23.5484 329.5574 15.73152834  3331
STARLINK-4029           
1 52685U 22053AF  22157.58334491 -.00021999  00000+0 -15267-3 0  9997
2 52685  53.2145 203.0402 0002410  15.4921 341.7874 15.73204059  1302
STARLINK-4005           
1 52686U 22053AG  22157.58334491 -.00021422  00000+0 -14843-3 0  9998
2 52686  53.2148 203.0459 0002607  18.5407 336.3040 15.73219840  3333
STARLINK-3981           
1 52687U 22053AH  22157.91667824  .00056265  00000+0  40301-3 0  9994
2 52687  53.2147 201.3872 0002284  13.2291  73.5502 15.73176308  3386
STARLINK-4032           
1 52688U 22053AJ  22157.91667824  .00036967  00000+0  26713-3 0  9993
2 52688  53.2146 201.3918 0002251  22.0611  62.9271 15.73156696  3388
STARLINK-4078           
1 52689U 22053AK  22157.91667824 -.00021148  00000+0 -14644-3 0  9991
2 52689  53.2161 201.3840 0002379  27.6028  60.9794 15.73225953  3385
STARLINK-4035           
1 52690U 22053AL  22157.91667824  .00047962  00000+0  34422-3 0  9999
2 52690  53.2160 201.3910 0002397  24.4607  61.1451 15.73196767  3385
STARLINK-3945           
1 52691U 22053AM  22157.91667824  .00056062  00000+0  40207-3 0  9999
2 52691  53.2163 201.3828 0002334  19.7602  69.4432 15.73147422  3384
STARLINK-3993           
1 52692U 22053AN  22157.58334491 -.00031545  00000+0 -22104-3 0  9991
2 52692  53.2165 203.0384 0002536  13.8076 344.6627 15.73209452  3338
